ONEWEB-0555             
1 56057U 23043M   25057.23831393  .00000088  00000+0  19666-3 0  9992
2 56057  87.9114 323.6344 0001141  63.0531 297.0717 13.16597678 96332
ONEWEB-0557             
1 56058U 23043N   25057.48054638  .00000097  00000+0  21931-3 0  9997
2 56058  87.9115 323.6105 0000689  86.6084 273.5125 13.16595293 96365
ONEWEB-0558             
1 56059U 23043P   25057.53932534  .00000034  00000+0  50004-4 0  9999
2 56059  87.9351 338.7938 0002278  76.0265 284.1122 13.21824527 95409
ONEWEB-0559             
1 56060U 23043Q   25057.75535813 -.00001287  00000+0 -31486-2 0  9998
2 56060  87.9350 338.7449 0002076  86.3273 273.8098 13.21829588 95449
ONEWEB-0566             
1 56061U 23043R   25057.74907388  .00000023  00000+0  24984-4 0  9990
2 56061  87.9349 338.7456 0002394  81.0671 279.0734 13.21825888 95425
ONEWEB-0568             
1 56062U 23043S   25057.49795682  .00000107  00000+0  24628-3 0  9992
2 56062  87.9118 323.5723 0001481  70.9854 289.1437 13.16593817 96381
ONEWEB-0574             
1 56063U 23043T   25057.51566681  .00000041  00000+0  67753-4 0  9995
2 56063  87.9348 338.7819 0001787  73.1998 286.9332 13.21824223 95432
ONEWEB-0575             
1 56064U 23043U   25057.49163062  .00000112  00000+0  26046-3 0  9997
2 56064  87.9117 323.5856 0001228  86.6235 273.5036 13.16593866 96370
ONEWEB-0576             
1 56065U 23043V   25057.47262490  .00000051  00000+0  10023-3 0  9991
2 56065  87.9114 323.5811 0001439  76.0643 284.0648 13.16595142 96363
ONEWEB-0577             
1 56066U 23043W   25057.70695885  .00000011  00000+0 -36961-5 0  9994
2 56066  87.9112 323.5348 0001137  97.2473 262.8787 13.16593061 96421
ONEWEB-0578             
1 56067U 23043X   25057.50304134  .00000115  00000+0  24622-3 0  9990
2 56067  87.9349 338.7913 0001662  76.3773 283.7545 13.21823698 95391
ONEWEB-0579             
1 56068U 23043Y   25057.49359721  .00000168  00000+0  37566-3 0  9990
2 56068  87.9349 338.7827 0002065  86.2640 273.8730 13.21825872 95401
ONEWEB-0581             
1 56069U 23043Z   25057.48529794  .00000097  00000+0  22096-3 0  9992
2 56069  87.9115 323.6093 0001569  95.8935 264.2375 13.16593997 96361
ONEWEB-0609             
1 56070U 23043AA  25057.74940248  .00000066  00000+0  14031-3 0  9990
2 56070  87.9136 353.9091 0001919  76.7434 283.3910 13.15548207 93920
ONEWEB-0613             
1 56071U 23043AB  25057.51647793  .00000087  00000+0  19788-3 0  9992
2 56071  87.9138 353.9615 0002074  82.4743 277.6622 13.15549295 93895
ONEWEB-0630             
1 56072U 23043AC  25057.51172626  .00000102  00000+0  23758-3 0  9991
2 56072  87.9134 353.9443 0002130  80.0861 280.0509 13.15548184 93886
ONEWEB-0632             
1 56073U 23043AD  25056.74651010 -.00012141  00000+0 -32372-1 0  9993
2 56073  87.9135 354.1153 0004625  88.8209 271.3451 13.15451617 93784
ONEWEB-0633             
1 56074U 23043AE  25057.57669361  .00000176  00000+0  43481-3 0  9992
2 56074  87.9130 353.9229 0002262  76.8190 283.3193 13.15547883 93879
ONEWEB-0634             
1 56075U 23043AF  25057.56242033  .00000066  00000+0  14248-3 0  9992
2 56075  87.9135 353.9534 0001931  68.2919 291.8417 13.15550891 93865
ONEWEB-0635             
1 56076U 23043AG  25057.78585024 -.00000035  00000+0 -12603-3 0  9998
2 56076  87.9106 353.9252 0001702  90.6887 269.4438 13.15547777 93920
ONEWEB-0636             
1 56077U 23043AH  25057.77791724  .00000088  00000+0  20103-3 0  9994
2 56077  87.9120 353.9266 0001722  87.7498 272.3830 13.15550942 93904
ONEWEB-0637             
1 56078U 23043AJ  25057.77157287 -.00000089  00000+0 -27097-3 0  9997
2 56078  87.9139 353.9111 0001491  80.0321 280.0978 13.15548738 93929
ONEWEB-0647             
1 56079U 23043AK  25057.76682958 -.00000062  00000+0 -19969-3 0  9995
2 56079  87.9137 353.9244 0001897  85.3259 274.8088 13.15550452 93911
ONEWEB-0651             
1 56080U 23043AL  25057.53390530 -.00000069  00000+0 -21834-3 0  9995
2 56080  87.9138 353.9551 0001549  85.3801 274.7506 13.15548774 95080
ONEWEB-0718             
1 56081U 23043AM  25057.75732021 -.00000005  00000+0 -46586-4 0  9997
2 56081  87.9139 353.8953 0001857  63.6613 296.4707 13.15550832 93922
ONEWEB-0561             
1 56710U 23068A   25057.59665406  .00000101  00000+0  21620-3 0  9993
2 56710  87.9298   9.1129 0001842 100.5573 259.5768 13.20771312 86724
ONEWEB-0668             
1 56711U 23068B   25057.71564904  .00000085  00000+0  18877-3 0  9990
2 56711  87.9106 323.5251 0001606  58.0005 302.1281 13.16595999 89219
ONEWEB-0676             
1 56712U 23068C   25057.23986076  .00000105  00000+0  24226-3 0  9994
2 56712  87.9116 323.6439 0001644  96.6334 263.4984 13.16590870 89071
ONEWEB-0677             
1 56713U 23068D   25057.58560129  .00000109  00000+0  23585-3 0  9991
2 56713  87.9303   9.0866 0001575  83.9386 276.1927 13.20770212 87024
ONEWEB-0678             
1 56714U 23068E   25057.57352240  .00000169  00000+0  41508-3 0  9995
2 56714  87.9138 353.9007 0002127  84.1159 276.0214 13.15548504 86752
ONEWEB-0679             
1 56715U 23068F   25057.43699912  .00000091  00000+0  20397-3 0  9998
2 56715  87.9114 323.6004 0001118  73.7951 286.3303 13.16594699 89125
ONEWEB-0680             
1 56716U 23068G   25057.49672861  .00000133  00000+0  29024-3 0  9992
2 56716  87.9329 338.8097 0001516  55.2840 304.8436 13.21828558 88254
ONEWEB-0681             
1 56717U 23068H   25057.73407341  .00000055  00000+0  10070-3 0  9993
2 56717  87.9347 338.7662 0001342 113.4866 246.6409 13.21823973 88275
ONEWEB-0682             
1 56718U 23068J   25057.82782090 -.00000003  00000+0 -41260-4 0  9992
2 56718  87.9137 353.8845 0001474  63.6755 296.4527 13.15546405 86955
ONEWEB-0683             
1 56719U 23068K   25057.77316722 -.00000039  00000+0 -13777-3 0  9992
2 56719  87.9136 353.8665 0001677  69.6987 290.4323 13.15547938 86919
ONEWEB-0684             
1 56720U 23068L   25057.55292983  .00000016  00000+0  74562-5 0  9996
2 56720  87.9108 353.9562 0003312  78.8946 281.2556 13.15548057 86719
ONEWEB-0686             
1 56721U 23068M   25057.42671586  .00000154  00000+0  36937-3 0  9998
2 56721  87.9115 323.6393 0001856  68.6989 291.4340 13.16594094 89113
ONEWEB-0694             
1 56722U 23068N   25057.46947081  .00000024  00000+0  29456-4 0  9994
2 56722  87.9110 323.5496 0001478  65.2440 294.8844 13.16593439 89171
ONEWEB-0696             
1 56723U 23068P   25057.51013971  .00000133  00000+0  32053-3 0  9990
2 56723  87.9135 353.9707 0002094  83.4409 276.6960 13.15549640 86823
ONEWEB-0703             
1 56724U 23068Q   25057.51964829  .00000109  00000+0  25484-3 0  9991
2 56724  87.9116 353.9854 0002562 103.2334 256.9082 13.15549039 86710
ONEWEB-0721             
1 56725U 23068R   25057.76607805  .00001504  00000+0  35736-2 0  9997
2 56725  86.6743 237.0085 0001416  97.9744 262.1550 13.22416595 95102
ONEWEB-0015             
1 61594U 24188A   25057.91667824  .00000901  00000+0  63263-3 0  9992
2 61594  87.1819 117.6387 0007350 120.1854 266.8758 13.97125765 20066
ONEWEB-0687             
1 61595U 24188B   25057.85614335  .00005003  00000+0  60161-3 0  9997
2 61595  86.5743 114.8558 0006687 115.8321 244.3593 14.83747061 22185
ONEWEB-0688             
1 61596U 24188C   25057.85939125  .00005169  00000+0  62172-3 0  9992
2 61596  86.5753 114.8791 0006173 116.1247 244.0612 14.83749227 22182
ONEWEB-0689             
1 61597U 24188D   25057.91667824 -.00003581  00000+0 -25727-2 0  9996
2 61597  87.1755 117.9383 0004517 116.1628 108.6107 13.97261779 20093
ONEWEB-0690             
1 61598U 24188E   25057.91667824 -.00820877  00000+0 -40207+0 0  9999
2 61598  87.2591 117.8551 0009539 122.2970 189.7004 14.21069722 20139
ONEWEB-0691             
1 61599U 24188F   25057.91667824 -.00989182  00000+0 -69908+0 0  9994
2 61599  87.1947 117.9537 0007009 113.3881 222.9473 14.01139790  5573
ONEWEB-0692             
1 61600U 24188G   25057.91667824 -.00993085  00000+0 -71559+0 0  9999
2 61600  87.1935 117.9677 0003797 128.9285 312.6162 14.00068488 20199
ONEWEB-0693             
1 61601U 24188H   25057.85989569 -.00006842  00000+0 -83397-3 0  9999
2 61601  86.5669 114.7528 0004265 129.0701 231.0903 14.83663292 22186
ONEWEB-0695             
1 61602U 24188J   25057.91667824 -.00950314  00000+0 -70507+0 0  9991
2 61602  87.2046 117.9806 0004706 112.3504 243.8640 13.98274096 20221
ONEWEB-0697             
1 61603U 24188K   25057.91667824  .00000298  00000+0  20304-3 0  9991
2 61603  87.1624 117.9624 0002641 132.1646 252.0577 13.96663358 20248
ONEWEB-0698             
1 61604U 24188L   25057.91667824 -.00993123  00000+0 -72172+0 0  9998
2 61604  87.2053 117.9840 0005864 123.8088   0.9423 13.99584536 20011
ONEWEB-0699             
1 61605U 24188M   25057.89074894  .00000497  00000+0  13837-2 0  9992
2 61605  87.8787 130.9968 0002349  99.6437 260.4956 13.10524666 21062
ONEWEB-0700             
1 61606U 24188N   25057.89182370  .00000435  00000+0  12097-2 0  9991
2 61606  87.8786 131.0013 0001675  81.9064 278.2253 13.10369905 21055
ONEWEB-0701             
1 61607U 24188P   25057.45082801 -.00000516  00000+0 -15095-2 0  9995
2 61607  87.8793 131.0902 0002225  82.9985 277.1396 13.10547438 21006
ONEWEB-0702             
1 61608U 24188Q   25057.91667824 -.00980780  00000+0 -68510+0 0  9998
2 61608  87.1971 117.9740 0007759 123.5891 156.7262 14.01764845  5477
ONEWEB-0704             
1 61609U 24188R   25057.43952818  .00000053  00000+0  11685-3 0  9995
2 61609  87.8964 130.9921 0001986  74.3633 285.7713 13.10478139 20980
ONEWEB-0705             
1 61610U 24188S   25057.90192856 -.00015205  00000+0 -43583-1 0  9994
2 61610  87.8774 131.0077 0000964  68.8647 291.2583 13.10504000 13215
ONEWEB-0706             
1 61611U 24188T   25057.90609320  .00000114  00000+0  24136-3 0  9990
2 61611  87.9391 130.9879 0000805 122.4665 237.6548 13.22999827 21088
